NORAD_CAT_ID,OBJECT_NAME,OBJECT_TYPE,EPOCH,MEAN_MOTION,ECCENTRICITY,INCLINATION,RA_OF_ASC_NODE,ARG_OF_PERICENTER,MEAN_ANOMALY,BSTAR,MEAN_MOTION_DOT,MEAN_MOTION_DDOT,TLE_LINE0,TLE_LINE1,TLE_LINE2,SEMIMAJOR_AXIS,PERIOD,APOGEE,PERIGEE,DECAYED
56468.0,STARLINK-5998,PAYLOAD,2024-08-07 05:36:20,14.98343032,0.0002944,69.9996,165.2888,265.6959,94.3864,0.00012268,1.372e-05,0.0,0 STARLINK-5998,1 56468U 23064W   24220.23357378  .00001372  00000-0  12268-3 0  9997,2 56468  69.9996 165.2888 0002944 265.6959  94.3864 14.98343032 68452,6950.153,96.106,574.064,569.971,0.0
56468.0,STARLINK-5998,PAYLOAD,2024-08-08 05:38:22,14.98328407,0.0002529,70.0009,162.7648,255.1202,104.9677,0.00024432,2.823e-05,0.0,0 STARLINK-5998,1 56468U 23064W   24221.23498087  .00002823  00000-0  24432-3 0  9999,2 56468  70.0009 162.7648 0002529 255.1202 104.9677 14.98328407 68606,6950.198,96.107,573.821,570.305,0.0
56468.0,STARLINK-5998,PAYLOAD,2024-08-08 21:39:42,14.98328363,0.0002613,70.0018,161.0833,242.8157,117.2736,0.00020283,2.328e-05,0.0,0 STARLINK-5998,1 56468U 23064W   24221.90258014  .00002328  00000-0  20283-3 0  9997,2 56468  70.0018 161.0833 0002613 242.8157 117.2736 14.98328363 69065,6950.198,96.107,573.879,570.247,0.0
56468.0,STARLINK-5998,PAYLOAD,2024-08-09 13:41:03,14.98334422,0.0001972,70.0025,159.3968,278.3325,81.7611,-3.7396e-05,-5.39e-06,0.0,0 STARLINK-5998,1 56468U 23064W   24222.57018196 -.00000539  00000-0 -37396-4 0  9994,2 56468  70.0025 159.3968 0001972 278.3325  81.7611 14.98334422 68801,6950.179,96.107,573.415,570.674,0.0
56468.0,STARLINK-5998,PAYLOAD,2024-08-09 21:41:44,14.98329306,0.0002318,70.0014,158.5557,267.6636,92.4258,-3.9226e-05,-5.61e-06,0.0,0 STARLINK-5998,1 56468U 23064W   24222.90398323 -.00000561  00000-0 -39226-4 0  9993,2 56468  70.0014 158.5557 0002318 267.6636  92.4258 14.98329306 68851,6950.195,96.107,573.671,570.449,0.0
56468.0,STARLINK-5998,PAYLOAD,2024-08-10 04:06:16,14.98326868,0.0002425,70.0021,157.8866,233.8974,126.196,-6.2361e-05,-8.37e-06,0.0,0 STARLINK-5998,1 56468U 23064W   24223.17102334 -.00000837  00000-0 -62361-4 0  9990,2 56468  70.0021 157.8866 0002425 233.8974 126.1960 14.98326868 69253,6950.203,96.107,573.753,570.382,0.0
56468.0,STARLINK-5998,PAYLOAD,2024-08-10 20:07:36,14.98334783,0.0002776,70.0005,156.203,261.8528,98.2316,1.2179e-05,5.2e-07,0.0,0 STARLINK-5998,1 56468U 23064W   24223.83861644  .00000052  00000-0  12179-4 0  9998,2 56468  70.0005 156.2030 0002776 261.8528  98.2316 14.98334783 69356,6950.178,96.107,573.972,570.114,0.0
56468.0,STARLINK-5998,PAYLOAD,2024-08-10 21:43:44,14.9833413,0.0002804,70.0006,156.0323,260.2853,99.7989,2.378e-05,1.91e-06,0.0,0 STARLINK-5998,1 56468U 23064W   24223.90537618  .00000191  00000-0  23780-4 0  9991,2 56468  70.0006 156.0323 0002804 260.2853  99.7989 14.98334130 69006,6950.18,96.107,573.994,570.096,0.0
56468.0,STARLINK-5998,PAYLOAD,2024-08-11 02:32:07,14.98343148,0.0002538,70.0013,155.5288,257.3949,102.6926,0.00012011,1.341e-05,0.0,0 STARLINK-5998,1 56468U 23064W   24224.10564754  .00001341  00000-0  12011-3 0  9997,2 56468  70.0013 155.5288 0002538 257.3949 102.6926 14.98343148 69391,6950.152,96.106,573.781,570.253,0.0
56468.0,STARLINK-5998,PAYLOAD,2024-08-11 12:08:57,14.98333056,0.0002454,70.002,154.5164,279.427,80.6612,2.8662e-05,2.49e-06,0.0,0 STARLINK-5998,1 56468U 23064W   24224.50621562  .00000249  00000-0  28662-4 0  9998,2 56468  70.0020 154.5164 0002454 279.4270  80.6612 14.98333056 69451,6950.183,96.107,573.754,570.343,0.0
56468.0,STARLINK-5998,PAYLOAD,2024-08-11 21:45:45,14.98327576,0.0002531,70.0003,153.5071,276.1053,83.9817,0.00011086,1.23e-05,0.0,0 STARLINK-5998,1 56468U 23064W   24224.90677724  .00001230  00000-0  11086-3 0  9995,2 56468  70.0003 153.5071 0002531 276.1053  83.9817 14.98327576 69157,6950.2,96.107,573.824,570.306,0.0
56468.0,STARLINK-5998,PAYLOAD,2024-08-12 12:10:56,14.98346703,0.000261,70.0012,151.9892,285.3232,74.7639,0.0001215,1.358e-05,0.0,0 STARLINK-5998,1 56468U 23064W   24225.50760291  .00001358  00000-0  12150-3 0  9998,2 56468  70.0012 151.9892 0002610 285.3232  74.7639 14.98346703 69602,6950.141,96.106,573.82,570.192,0.0
56468.0,STARLINK-5998,PAYLOAD,2024-08-12 18:35:29,14.98340231,0.0002622,70.0013,151.3204,260.7215,99.3647,-3.953e-05,-5.65e-06,0.0,0 STARLINK-5998,1 56468U 23064W   24225.77464873 -.00000565  00000-0 -39530-4 0  9997,2 56468  70.0013 151.3204 0002622 260.7215  99.3647 14.98340231 69641,6950.161,96.106,573.849,570.204,0.0
56468.0,STARLINK-5998,PAYLOAD,2024-08-12 21:47:45,14.9834235,0.0002592,70.0014,150.9841,260.0804,100.0063,-9.692e-06,-2.09e-06,0.0,0 STARLINK-5998,1 56468U 23064W   24225.90816638 -.00000209  00000-0 -96920-5 0  9994,2 56468  70.0014 150.9841 0002592 260.0804 100.0063 14.98342350 69306,6950.155,96.106,573.821,570.218,0.0
56468.0,STARLINK-5998,PAYLOAD,2024-08-13 04:12:16,14.98350113,0.0002484,70.0008,150.3103,260.8377,99.2501,7.6015e-05,8.15e-06,0.0,0 STARLINK-5998,1 56468U 23064W   24226.17519580  .00000815  00000-0  76015-4 0  9993,2 56468  70.0008 150.3103 0002484 260.8377  99.2501 14.98350113 69703,6950.131,96.106,573.722,570.269,0.0
56468.0,STARLINK-5998,PAYLOAD,2024-08-13 18:37:34,14.98292149,0.000217,70.0023,148.7944,268.1026,91.9884,-0.00036465,-4.437e-05,0.0,0 STARLINK-5998,1 56468U 23064W   24226.77609171 -.00004437  00000-0 -36465-3 0  9995,2 56468  70.0023 148.7944 0002170 268.1026  91.9884 14.98292149 69794,6950.31,96.109,573.683,570.667,0.0
56468.0,STARLINK-5998,PAYLOAD,2024-08-13 21:49:50,14.98287188,0.0002697,70.0012,148.4582,272.4248,87.6602,-0.00036683,-4.462e-05,0.0,0 STARLINK-5998,1 56468U 23064W   24226.90961741 -.00004462  00000-0 -36683-3 0  9994,2 56468  70.0012 148.4582 0002697 272.4248  87.6602 14.98287188 69455,6950.325,96.11,574.065,570.316,0.0
56468.0,STARLINK-5998,PAYLOAD,2024-08-14 04:14:21,14.98309996,0.0002909,69.9997,147.7833,267.9475,92.1351,-0.00020408,-2.526e-05,0.0,0 STARLINK-5998,1 56468U 23064W   24227.17664328 -.00002526  00000-0 -20408-3 0  9992,2 56468  69.9997 147.7833 0002909 267.9475  92.1351 14.98309996 69850,6950.255,96.108,574.142,570.098,0.0
56468.0,STARLINK-5998,PAYLOAD,2024-08-14 12:15:01,14.9833017,0.0003195,70.0,146.9413,269.7209,90.3584,-0.00012899,-1.632e-05,0.0,0 STARLINK-5998,1 56468U 23064W   24227.51043023 -.00001632  00000-0 -12899-3 0  9995,2 56468  70.0000 146.9413 0003195 269.7209  90.3584 14.98330170 69908,6950.192,96.107,574.278,569.837,0.0
56468.0,STARLINK-5998,PAYLOAD,2024-08-14 21:51:49,14.98330945,0.0003005,70.0012,145.9354,268.0109,92.0706,0.00010611,1.173e-05,0.0,0 STARLINK-5998,1 56468U 23064W   24227.91098753  .00001173  00000-0  10611-3 0  9997,2 56468  70.0012 145.9354 0003005 268.0109  92.0706 14.98330945 69607,6950.19,96.107,574.144,569.966,0.0
56468.0,STARLINK-5998,PAYLOAD,2024-08-15 04:16:21,14.98349581,0.0003167,69.9999,145.2587,268.8493,91.2303,0.00066873,7.899e-05,0.0,0 STARLINK-5998,1 56468U 23064W   24228.17802226  .00007899  00000-0  66873-3 0  9996,2 56468  69.9999 145.2587 0003167 268.8493  91.2303 14.98349581 70008,6950.132,96.106,574.198,569.796,0.0
56468.0,STARLINK-5998,PAYLOAD,2024-08-15 12:17:02,14.98340994,0.0002568,70.0021,144.417,286.5055,73.5822,0.00077818,9.207e-05,0.0,0 STARLINK-5998,1 56468U 23064W   24228.51183179  .00009207  00000-0  77818-3 0  9999,2 56468  70.0021 144.4170 0002568 286.5055  73.5822 14.98340994 69692,6950.159,96.106,573.809,570.239,0.0
56468.0,STARLINK-5998,PAYLOAD,2024-08-15 21:53:50,14.98333575,0.0002548,70.0017,143.4073,274.9886,85.0982,0.00088599,0.00010495,0.0,0 STARLINK-5998,1 56468U 23064W   24228.91239329  .00010495  00000-0  88599-3 0  9991,2 56468  70.0017 143.4073 0002548 274.9886  85.0982 14.98333575 69758,6950.182,96.107,573.818,570.276,0.0
56468.0,STARLINK-5998,PAYLOAD,2024-08-16 04:18:22,14.98326457,0.0002569,70.0007,142.7343,272.5819,87.5046,0.00075523,8.929e-05,0.0,0 STARLINK-5998,1 56468U 23064W   24229.17942700  .00008929  00000-0  75523-3 0  9996,2 56468  70.0007 142.7343 0002569 272.5819  87.5046 14.98326457 70157,6950.204,96.107,573.854,570.283,0.0
56468.0,STARLINK-5998,PAYLOAD,2024-08-16 21:55:50,14.98347242,0.0002782,70.0003,140.8834,273.8027,86.2814,4.713e-05,4.7e-06,0.0,0 STARLINK-5998,1 56468U 23064W   24229.91377986  .00000470  00000-0  47130-4 0  9993,2 56468  70.0003 140.8834 0002782 273.8027  86.2814 14.98347242 69904,6950.14,96.106,573.938,570.071,0.0
56468.0,STARLINK-5998,PAYLOAD,2024-08-17 04:20:22,14.98352509,0.0002903,69.9999,140.212,263.2213,96.8615,2.6737e-05,2.26e-06,0.0,0 STARLINK-5998,1 56468U 23064W   24230.18081249  .00000226  00000-0  26737-4 0  9997,2 56468  69.9999 140.2120 0002903 263.2213  96.8615 14.98352509 70306,6950.123,96.106,574.006,569.971,0.0
56468.0,STARLINK-5998,PAYLOAD,2024-08-17 21:57:51,14.98331859,0.0002811,70.0003,138.3583,281.3962,78.6881,-7.3782e-05,-9.73e-06,0.0,0 STARLINK-5998,1 56468U 23064W   24230.91518506 -.00000973  00000-0 -73782-4 0  9992,2 56468  70.0003 138.3583 0002811 281.3962  78.6881 14.98331859 70056,6950.187,96.107,574.006,570.098,0.0
56468.0,STARLINK-5998,PAYLOAD,2024-08-18 04:22:23,14.98335147,0.0002696,70.0017,137.6851,271.8992,88.1858,-0.00012336,-1.565e-05,0.0,0 STARLINK-5998,1 56468U 23064W   24231.18221566 -.00001565  00000-0 -12336-3 0  9994,2 56468  70.0017 137.6851 0002696 271.8992  88.1858 14.98335147 70457,6950.177,96.107,573.916,570.168,0.0
56468.0,STARLINK-5998,PAYLOAD,2024-08-18 21:59:52,14.98336904,0.0002831,70.0016,135.8333,261.2859,98.798,8.0832e-05,8.72e-06,0.0,0 STARLINK-5998,1 56468U 23064W   24231.91657458  .00000872  00000-0  80832-4 0  9993,2 56468  70.0016 135.8333 0002831 261.2859  98.7980 14.98336904 70205,6950.172,96.107,574.004,570.069,0.0
56468.0,STARLINK-5998,PAYLOAD,2024-08-19 04:24:24,14.98339222,0.0002804,70.002,135.1602,258.4971,101.5874,0.00030153,3.507e-05,0.0,0 STARLINK-5998,1 56468U 23064W   24232.18361401  .00003507  00000-0  30153-3 0  9991,2 56468  70.0020 135.1602 0002804 258.4971 101.5874 14.98339222 70600,6950.164,96.106,573.978,570.081,0.0
